#aV2024  6 26  0  0  0.00000000     288 DD+AD WGS84 FIT  NGA
## 2320 259200.00000000   300.00000000 60487 0.0000000000000
+   31     2  3  4  5  6  7  8  9 10 11 12 13 14 15 16 17 18
+         19 20 21 22 23 24 25 26 27 28 29 30 31 32  0  0  0
+          0  0  0  0  0  0  0  0  0  0  0  0  0  0  0  0  0
+          0  0  0  0  0  0  0  0  0  0  0  0  0  0  0  0  0
+          0  0  0  0  0  0  0  0  0  0  0  0  0  0  0  0  0
++         2  2  2  2  2  2  2  2  2  2  2  2  2  2  2  2  2
++         2  2  2  2  2  2  2  2  2  2  2  2  2  2  0  0  0
++         0  0  0  0  0  0  0  0  0  0  0  0  0  0  0  0  0
++         0  0  0  0  0  0  0  0  0  0  0  0  0  0  0  0  0
++         0  0  0  0  0  0  0  0  0  0  0  0  0  0  0  0  0
%c cc cc ccc ccc cccc cccc cccc cccc ccccc ccccc ccccc ccccc
%c cc cc ccc ccc cccc cccc cccc cccc ccccc ccccc ccccc ccccc
%f  0.0000000  0.000000000  0.00000000000  0.000000000000000
%f  0.0000000  0.000000000  0.00000000000  0.000000000000000
%i    0    0    0    0      0      0      0      0         0
%i    0    0    0    0      0      0      0      0         0
/*      NGA, ST. LOUIS,MO.                                  
/*   EPHEMERIS COMPUTED FROM 2 DAYS OF DATA                 
/*   EPOCHA v9 SMOOTHER                                     
/*   G2296 IERS2010 SATIGS SATAPC                           
*  2024  6 26 21 30  0.00000000
P  2 -14649.892846  21356.430182   5587.167857   -410.282467                    
V  2    410.481390  -7076.469575  31032.885064      0.071794                    
P  3 -13494.329416  12545.036133 -19245.112067    431.902211                    
V  3 -24054.517518  -1447.059150  16173.527285      0.172310                    
P  4  -5367.719917  17935.772087 -18769.872833    391.575094                    
V  4 -12237.246537 -20583.853650 -16287.885813      0.079736                    
P  5  25081.401688  -5503.920412   6773.258489   -177.708218                    
V  5   8887.835428   2003.847781 -30380.138294     -0.013322                    
P  6  11140.914745   9561.992078 -22066.811338    196.046856                    
V  6 -14891.196058  23820.794380   2900.515553     -0.218258                    
P  7  -2357.092447  22826.587021  13481.009008    -82.971583                    
V  7 -10716.219265  12801.210573 -24962.295915      0.090678                    
P  8 -13092.476067   7976.782926  21575.347752    248.251534                    
V  8 -14546.810370 -23564.145679    305.382171      0.173764                    
P  9   5595.865039  23777.449738 -10446.180483    250.096743                    
V  9  -8910.853102 -10019.231178 -27851.769961      0.147788                    
P 10 -18779.063316 -10768.777689  15815.743377    -51.825255                    
V 10  19539.144917   -904.224886  22570.077974     -0.088285                    
P 11  18273.883813  -4120.550713 -18784.254231   -693.610386                    
V 11 -12007.450627  20716.188587 -16261.220431     -0.075834                    
P 12  16427.604653 -11162.456122 -17890.674938   -517.420871                    
V 12  21976.243036   3360.619270  18418.462337     -0.031715                    
P 13  16005.794869   1708.689153  20959.818747    660.644583                    
V 13   9191.814446  25418.048809  -8770.950742      0.025660                    
P 14  15077.320642  13232.959293  17551.604475    434.897276                    
V 14 -22227.133814    969.338194  18187.440773      0.090400                    
P 15  11987.895608  -9844.708682  21055.806776    174.538917                    
V 15  17392.973961  21971.913314    548.162464      0.042151                    
P 16 -26482.432371      5.615745   3779.260957   -253.213880                    
V 16  -4884.901274  -2912.388400 -31009.839959      0.107215                    
P 17  13086.130752  22799.944017  -2691.822634    688.298539                    
V 17   -734.142447   4735.050494  31794.943682     -0.063842                    
P 18   2856.620539 -22412.066018  13806.627513   -629.843340                    
V 18  10947.106556 -13883.241984 -25021.045283     -0.045544                    
P 19  16439.747374  17579.301298 -11844.135739    502.062960                    
V 19   4081.901768  14154.166020  26672.696465      0.054048                    
P 20  26179.494937  -1885.278548  -3419.931599    373.402655                    
V 20  -3871.201838   3813.403208 -31309.387351     -0.004170                    
P 21 -16486.454394  17439.356404  10578.160725    112.847851                    
V 21   2831.097191 -13230.631088  28347.037904     -0.025266                    
P 22  21057.360241  10752.531901  12218.614070    -32.342028                    
V 22 -15144.722780    885.625994  26506.343376     -0.047717                    
P 23  -6829.999453 -14259.435248  21399.338764    259.831885                    
V 23  27012.750526   -855.391372   7862.913444      0.090746                    
P 24  14860.922098 -20690.268492   6296.000021   -480.157058                    
V 24   -123.918517   9513.403602  29989.478383     -0.021743                    
P 25   5181.461202 -15309.729214 -21377.647112    497.858766                    
V 25  26446.723779    568.805723   6356.336959      0.004835                    
P 26 -24502.643047  -5360.620638  -9429.292664    130.305987                    
V 26  11463.861045  -3842.513231 -27689.836853     -0.064976                    
P 27 -17797.135514  -4315.770892  19095.908802    -29.509884                    
V 27 -11254.005193 -22046.530018 -14828.296684     -0.011556                    
P 28 -10369.441808 -12018.469185 -21304.573440   -306.193450                    
V 28  13558.707669 -23389.299723   6597.467498     -0.164284                    
P 29  -1064.158340 -23164.666629 -12886.369641   -592.400764                    
V 29   8775.938729  13906.394252 -25942.084618      0.017765                    
P 30   6760.311983  16788.286691  19505.301718   -367.730133                    
V 30 -13972.498850  20335.476101 -13026.373408      0.063375                    
P 31 -16981.475407   -551.118006 -20720.370615   -227.164912                    
V 31  13018.946783 -22231.912132  -9798.955144      0.002274                    
P 32 -15734.057901 -20989.054998  -4588.571096   -614.834268                    
V 32   -788.580657  -6535.019607  30950.585527      0.014993                    
EOF
